GLOBALSTAR M075         
1 37192U 10054E   25075.54113314 -.00000086  00000+0  99931-4 0  9992
2 37192  51.9931 103.6215 0000393 113.9713  51.3393 12.62262511664143
GLOBALSTAR M083         
1 37739U 11033A   25075.47689417 -.00000071  00000+0  18090-3 0  9991
2 37739  51.9880 326.4268 0000811  70.0769 102.5023 12.62260521635141
GLOBALSTAR M088         
1 37740U 11033B   25075.58767562 -.00000107  00000+0 -19973-4 0  9996
2 37740  51.9718 231.6555 0000816  95.6650 341.0789 12.62264238630992
GLOBALSTAR M091         
1 37741U 11033C   25075.58727852 -.00000080  00000+0  13054-3 0  9997
2 37741  51.9986 195.0473 0000774  88.7235 285.3713 12.62265848631498
GLOBALSTAR M085         
1 37742U 11033D   25075.60345856 -.00000053  00000+0  28383-3 0  9992
2 37742  51.9854 146.1191 0000574  96.8387  50.8903 12.62266426632000
GLOBALSTAR M081         
1 37743U 11033E   25075.63054170 -.00000056  00000+0  26739-3 0  9998
2 37743  51.9947 148.7660 0000756 107.2636  43.9505 12.62261665632156
GLOBALSTAR M089         
1 37744U 11033F   25075.51387744 -.00000070  00000+0  18622-3 0  9990
2 37744  51.9915 103.3660 0000509 138.6607  22.0748 12.62267421632985
